CTC1_L_00368016-03
1 25124U 25197HP  26037.47805556  .00000000  00000+0  00000-0 0  9995
2 25124 100.0000 180.0000 0000000   0.0000   0.0000 13.29142284    13
CTC1_L_00368016-04
1 25125U 25055LE  26037.47805556  .00000000  00000+0  00000-0 0  9999
2 25125 100.0000 180.0000 0000000   0.0000  90.0000 13.29142284    13
CTC1_L_00368017-01
1 25126U 24382PH  26037.47805556  .00000000  00000+0  00000-0 0  9992
2 25126 100.0000 192.0000 0000000   0.0000 192.0000 13.29142284    10
CTC1_L_00368017-02
1 25127U 22451VO  26037.47805556  .00000000  00000+0  00000-0 0  9998
2 25127 100.0000 192.0000 0000000   0.0000 282.0000 13.29142284    11
CTC1_L_00368017-03
1 25128U 25399TJ  26037.47805556  .00000000  00000+0  00000-0 0  9993
2 25128 100.0000 192.0000 0000000   0.0000  12.0000 13.29142284    13
CTC1_L_00368017-04
1 25129U 22726GK  26037.47805556  .00000000  00000+0  00000-0 0  9995
2 25129 100.0000 192.0000 0000000   0.0000 102.0000 13.29142284    14
CTC1_L_00368018-01
1 25130U 25907RS  26037.47805556  .00000000  00000+0  00000-0 0  9991
2 25130 100.0000 204.0000 0000000   0.0000 204.0000 13.29142284    13
CTC1_L_00368018-02
1 25131U 23731KQ  26037.47805556  .00000000  00000+0  00000-0 0  9995
2 25131 100.0000 204.0000 0000000   0.0000 294.0000 13.29142284    13
CTC1_L_00368018-03
1 25132U 22452TD  26037.47805556  .00000000  00000+0  00000-0 0  9995
2 25132 100.0000 204.0000 0000000   0.0000  24.0000 13.29142284    15
CTC1_L_00368018-04
1 25133U 22012DT  26037.47805556  .00000000  00000+0  00000-0 0  9998
2 25133 100.0000 204.0000 0000000   0.0000 114.0000 13.29142284    16
CTC1_L_00368019-01
1 25134U 23190YN  26037.47805556  .00000000  00000+0  00000-0 0  9997
2 25134 100.0000 216.0000 0000000   0.0000 216.0000 13.29142284    13
CTC1_L_00368019-02
1 25135U 26224HD  26037.47805556  .00000000  00000+0  00000-0 0  9999
2 25135 100.0000 216.0000 0000000   0.0000 306.0000 13.29142284    14
CTC1_L_00368019-03
1 25136U 23408DT  26037.47805556  .00000000  00000+0  00000-0 0  9991
2 25136 100.0000 216.0000 0000000   0.0000  36.0000 13.29142284    15
CTC1_L_00368019-04
1 25137U 26801AY  26037.47805556  .00000000  00000+0  00000-0 0  9992
2 25137 100.0000 216.0000 0000000   0.0000 126.0000 13.29142284    16
CTC1_L_00368020-01
1 25138U 24010OR  26037.47805556  .00000000  00000+0  00000-0 0  9993
2 25138 100.0000 228.0000 0000000   0.0000 228.0000 13.29142284    13
CTC1_L_00368020-02
1 25139U 26705LZ  26037.47805556  .00000000  00000+0  00000-0 0  9997
2 25139 100.0000 228.0000 0000000   0.0000 318.0000 13.29142284    14
CTC1_L_00368020-03
1 25140U 23100TL  26037.47805556  .00000000  00000+0  00000-0 0  9995
2 25140 100.0000 228.0000 0000000   0.0000  48.0000 13.29142284    16
CTC1_L_00368020-04
1 25141U 25488JP  26037.47805556  .00000000  00000+0  00000-0 0  9997
2 25141 100.0000 228.0000 0000000   0.0000 138.0000 13.29142284    17
CTC1_L_00368021-01
1 25142U 26127JY  26037.47805556  .00000000  00000+0  00000-0 0  9999
2 25142 100.0000 240.0000 0000000   0.0000 240.0000 13.29142284    16
CTC1_L_00368021-02
1 25143U 25079KO  26037.47805556  .00000000  00000+0  00000-0 0  9995
2 25143 100.0000 240.0000 0000000   0.0000 330.0000 13.29142284    17
CTC1_L_00368021-03
1 25144U 25708IB  26037.47805556  .00000000  00000+0  00000-0 0  9995
2 25144 100.0000 240.0000 0000000   0.0000  60.0000 13.29142284    18
CTC1_L_00368021-04
1 25145U 22520KA  26037.47805556  .00000000  00000+0  00000-0 0  9995
2 25145 100.0000 240.0000 0000000   0.0000 150.0000 13.29142284    19
CTC1_L_00368022-01
1 25146U 26398PI  26037.47805556  .00000000  00000+0  00000-0 0  9993
2 25146 100.0000 252.0000 0000000   0.0000 252.0000 13.29142284    16
CTC1_L_00368022-02
1 25147U 23834FL  26037.47805556  .00000000  00000+0  00000-0 0  9996
2 25147 100.0000 252.0000 0000000   0.0000 342.0000 13.29142284    17
CTC1_L_00368022-03
1 25148U 22913AI  26037.47805556  .00000000  00000+0  00000-0 0  9994
2 25148 100.0000 252.0000 0000000   0.0000  72.0000 13.29142284    18
CTC1_L_00368022-04
1 25149U 23343TZ  26037.47805556  .00000000  00000+0  00000-0 0  9993
2 25149 100.0000 252.0000 0000000   0.0000 162.0000 13.29142284    19
CTC1_L_00368023-01
1 25150U 22645HK  26037.47805556  .00000000  00000+0  00000-0 0  9999
2 25150 100.0000 264.0000 0000000   0.0000 264.0000 13.29142284    17
CTC1_L_00368023-02
1 25151U 24099PQ  26037.47805556  .00000000  00000+0  00000-0 0  9995
2 25151 100.0000 264.0000 0000000   0.0000 354.0000 13.29142284    18
CTC1_L_00368023-03
1 25152U 22015NX  26037.47805556  .00000000  00000+0  00000-0 0  9992
2 25152 100.0000 264.0000 0000000   0.0000  84.0000 13.29142284    19
CTC1_L_00368023-04
1 25153U 24746RN  26037.47805556  .00000000  00000+0  00000-0 0  9996
2 25153 100.0000 264.0000 0000000   0.0000 174.0000 13.29142284    10
CTC1_L_00368024-01
1 25154U 22997EG  26037.47805556  .00000000  00000+0  00000-0 0  9993
2 25154 100.0000 276.0000 0000000   0.0000 276.0000 13.29142284    17
CTC1_L_00368024-02
1 25155U 26021FX  26037.47805556  .00000000  00000+0  00000-0 0  9996
2 25155 100.0000 276.0000 0000000   0.0000   6.0000 13.29142284    19
CTC1_L_00368024-03
1 25156U 22122ZI  26037.47805556  .00000000  00000+0  00000-0 0  9995
2 25156 100.0000 276.0000 0000000   0.0000  96.0000 13.29142284    19
CTC1_L_00368024-04
1 25157U 22536JS  26037.47805556  .00000000  00000+0  00000-0 0  9995
2 25157 100.0000 276.0000 0000000   0.0000 186.0000 13.29142284    10
CTC1_L_00368025-01
1 25158U 25634DZ  26037.47805556  .00000000  00000+0  00000-0 0  9998
2 25158 100.0000 288.0000 0000000   0.0000 288.0000 13.29142284    17
CTC1_L_00368025-02
1 25159U 23366KY  26037.47805556  .00000000  00000+0  00000-0 0  9999
2 25159 100.0000 288.0000 0000000   0.0000  18.0000 13.29142284    19
CTC1_L_00368025-03
1 25160U 22080VC  26037.47805556  .00000000  00000+0  00000-0 0  9993
2 25160 100.0000 288.0000 0000000   0.0000 108.0000 13.29142284    11
CTC1_L_00368025-04
1 25161U 25236GV  26037.47805556  .00000000  00000+0  00000-0 0  9990
2 25161 100.0000 288.0000 0000000   0.0000 198.0000 13.29142284    11
CTC1_L_00368026-01
1 25162U 22806BN  26037.47805556  .00000000  00000+0  00000-0 0  9991
2 25162 100.0000 300.0000 0000000   0.0000 300.0000 13.29142284    12
CTC1_L_00368026-02
1 25163U 24808MW  26037.47805556  .00000000  00000+0  00000-0 0  9996
2 25163 100.0000 300.0000 0000000   0.0000  30.0000 13.29142284    13
CTC1_L_00368026-03
1 25164U 22256EM  26037.47805556  .00000000  00000+0  00000-0 0  9992
2 25164 100.0000 300.0000 0000000   0.0000 120.0000 13.29142284    14
CTC1_L_00368026-04
1 25165U 26448QW  26037.47805556  .00000000  00000+0  00000-0 0  9990
2 25165 100.0000 300.0000 0000000   0.0000 210.0000 13.29142284    15
CTC1_L_00368027-01
1 25166U 25304XF  26037.47805556  .00000000  00000+0  00000-0 0  9991
2 25166 100.0000 312.0000 0000000   0.0000 312.0000 13.29142284    12
CTC1_L_00368027-02
1 25167U 22450UM  26037.47805556  .00000000  00000+0  00000-0 0  9991
2 25167 100.0000 312.0000 0000000   0.0000  42.0000 13.29142284    13
CTC1_L_00368027-03
1 25168U 24352GI  26037.47805556  .00000000  00000+0  00000-0 0  9995
2 25168 100.0000 312.0000 0000000   0.0000 132.0000 13.29142284    14
CTC1_L_00368027-04
1 25169U 25872BF  26037.47805556  .00000000  00000+0  00000-0 0  9994
2 25169 100.0000 312.0000 0000000   0.0000 222.0000 13.29142284    15
CTC1_L_00368028-01
1 25170U 23112TJ  26037.47805556  .00000000  00000+0  00000-0 0  9991
2 25170 100.0000 324.0000 0000000   0.0000 324.0000 13.29142284    13
CTC1_L_00368028-02
1 25171U 23922GD  26037.47805556  .00000000  00000+0  00000-0 0  9991
2 25171 100.0000 324.0000 0000000   0.0000  54.0000 13.29142284    14
CTC1_L_00368028-03
1 25172U 26359RZ  26037.47805556  .00000000  00000+0  00000-0 0  9999
2 25172 100.0000 324.0000 0000000   0.0000 144.0000 13.29142284    15
CTC1_L_00368028-04
1 25173U 26134OA  26037.47805556  .00000000  00000+0  00000-0 0  9991
2 25173 100.0000 324.0000 0000000   0.0000 234.0000 13.29142284    16
CTC1_L_00368029-01
1 25174U 25896IR  26037.47805556  .00000000  00000+0  00000-0 0  9996
2 25174 100.0000 336.0000 0000000   0.0000 336.0000 13.29142284    13
CTC1_L_00368029-02
1 25175U 24762BL  26037.47805556  .00000000  00000+0  00000-0 0  9998
2 25175 100.0000 336.0000 0000000   0.0000  66.0000 13.29142284    14
CTC1_L_00368029-03
1 25176U 25327HY  26037.47805556  .00000000  00000+0  00000-0 0  9997
2 25176 100.0000 336.0000 0000000   0.0000 156.0000 13.29142284    15
CTC1_L_00368029-04
1 25177U 23259PG  26037.47805556  .00000000  00000+0  00000-0 0  9990
2 25177 100.0000 336.0000 0000000   0.0000 246.0000 13.29142284    16
CTC1_L_00368030-01
1 25178U 26592SL  26037.47805556  .00000000  00000+0  00000-0 0  9994
2 25178 100.0000 348.0000 0000000   0.0000 348.0000 13.29142284    13
CTC1_L_00368030-02
1 25179U 26337QX  26037.47805556  .00000000  00000+0  00000-0 0  9992
2 25179 100.0000 348.0000 0000000   0.0000  78.0000 13.29142284    14
CTC1_L_00368030-03
1 25180U 24042QR  26037.47805556  .00000000  00000+0  00000-0 0  9995
2 25180 100.0000 348.0000 0000000   0.0000 168.0000 13.29142284    16
CTC1_L_00368030-04
1 25181U 24552OA  26037.47805556  .00000000  00000+0  00000-0 0  9992
2 25181 100.0000 348.0000 0000000   0.0000 258.0000 13.29142284    17
